{
  "type": "FeatureCollection",
  "features": [
    {
      "type": "Feature",
      "properties": {
        "norad_id": 66604,
        "name": "STARLINK-35977",
        "group": "last-30-days",
        "lat": 10.158228125464822,
        "lon": -138.4946739615468,
        "alt_km": 401.1226985790927,
        "timestamp": "2025-12-09T16:56:35.359769+00:00",
        "meta_object_name": "STARLINK-35977",
        "meta_object_id": "2025-270S",
        "meta_epoch": "2025-12-09T12:00:02.000160",
        "meta_mean_motion": 15.55894774,
        "meta_eccentricity": 0.0001619,
        "meta_inclination": 42.9997,
        "meta_ra_of_asc_node": 211.633,
        "meta_arg_of_pericenter": 252.3572,
        "meta_mean_anomaly": 48.1309,
        "meta_ephemeris_type": 0,
        "meta_classification_type": "U",
        "meta_norad_cat_id": 66604,
        "meta_element_set_no": 999,
        "meta_rev_at_epoch": 388,
        "meta_bstar": -0.032118,
        "meta_mean_motion_dot": -0.02040745,
        "meta_mean_motion_ddot": 0,
        "tle_line1": "1 66604U 25270S   25343.50002315 -.02040745  00000+0 -32118-1 0  9990",
        "tle_line2": "2 66604  42.9997 211.6330 0001619 252.3572  48.1309 15.55894774  3882"
      },
      "geometry": {
        "type": "Point",
        "coordinates": [
          -138.4946739615468,
          10.158228125464822
        ]
      }
    },
    {
      "type": "Feature",
      "properties": {
        "norad_id": 66605,
        "name": "STARLINK-36052",
        "group": "last-30-days",
        "lat": 11.439522640155824,
        "lon": -137.0427140379569,
        "alt_km": 400.9766768278578,
        "timestamp": "2025-12-09T16:56:35.359779+00:00",
        "meta_object_name": "STARLINK-36052",
        "meta_object_id": "2025-270T",
        "meta_epoch": "2025-12-09T12:00:02.000160",
        "meta_mean_motion": 15.55899074,
        "meta_eccentricity": 0.0001807,
        "meta_inclination": 42.9993,
        "meta_ra_of_asc_node": 211.6288,
        "meta_arg_of_pericenter": 255.1996,
        "meta_mean_anomaly": 47.204,
        "meta_ephemeris_type": 0,
        "meta_classification_type": "U",
        "meta_norad_cat_id": 66605,
        "meta_element_set_no": 999,
        "meta_rev_at_epoch": 388,
        "meta_bstar": -0.032252,
        "meta_mean_motion_dot": -0.02048759,
        "meta_mean_motion_ddot": 0,
        "tle_line1": "1 66605U 25270T   25343.50002315 -.02048759  00000+0 -32252-1 0  9993",
        "tle_line2": "2 66605  42.9993 211.6288 0001807 255.1996  47.2040 15.55899074  3881"
      },
      "geometry": {
        "type": "Point",
        "coordinates": [
          -137.0427140379569,
          11.439522640155824
        ]
      }
    },
    {
      "type": "Feature",
      "properties": {
        "norad_id": 66606,
        "name": "STARLINK-36063",
        "group": "last-30-days",
        "lat": 13.97326017847937,
        "lon": -134.1074043574882,
        "alt_km": 400.67217586730385,
        "timestamp": "2025-12-09T16:56:35.359789+00:00",
        "meta_object_name": "STARLINK-36063",
        "meta_object_id": "2025-270U",
        "meta_epoch": "2025-12-09T12:00:02.000160",
        "meta_mean_motion": 15.55887841,
        "meta_eccentricity": 0.000158,
        "meta_inclination": 42.9995,
        "meta_ra_of_asc_node": 211.6183,
        "meta_arg_of_pericenter": 250.3475,
        "meta_mean_anomaly": 55.8937,
        "meta_ephemeris_type": 0,
        "meta_classification_type": "U",
        "meta_norad_cat_id": 66606,
        "meta_element_set_no": 999,
        "meta_rev_at_epoch": 388,
        "meta_bstar": -0.031925,
        "meta_mean_motion_dot": -0.02029266,
        "meta_mean_motion_ddot": 0,
        "tle_line1": "1 66606U 25270U   25343.50002315 -.02029266  00000+0 -31925-1 0  9992",
        "tle_line2": "2 66606  42.9995 211.6183 0001580 250.3475  55.8937 15.55887841  3884"
      },
      "geometry": {
        "type": "Point",
        "coordinates": [
          -134.1074043574882,
          13.97326017847937
        ]
      }
    },
    {
      "type": "Feature",
      "properties": {
        "norad_id": 66607,
        "name": "STARLINK-35993",
        "group": "last-30-days",
        "lat": 12.710272523827367,
        "lon": -135.58196444520712,
        "alt_km": 400.82188034371484,
        "timestamp": "2025-12-09T16:56:35.359799+00:00",
        "meta_object_name": "STARLINK-35993",
        "meta_object_id": "2025-270V",
        "meta_epoch": "2025-12-09T12:00:02.000160",
        "meta_mean_motion": 15.55895322,
        "meta_eccentricity": 0.0001772,
        "meta_inclination": 42.9994,
        "meta_ra_of_asc_node": 211.6242,
        "meta_arg_of_pericenter": 254.6337,
        "meta_mean_anomaly": 49.6862,
        "meta_ephemeris_type": 0,
        "meta_classification_type": "U",
        "meta_norad_cat_id": 66607,
        "meta_element_set_no": 999,
        "meta_rev_at_epoch": 378,
        "meta_bstar": -0.032114,
        "meta_mean_motion_dot": -0.02040663,
        "meta_mean_motion_ddot": 0,
        "tle_line1": "1 66607U 25270V   25343.50002315 -.02040663  00000+0 -32114-1 0  9998",
        "tle_line2": "2 66607  42.9994 211.6242 0001772 254.6337  49.6862 15.55895322  3787"
      },
      "geometry": {
        "type": "Point",
        "coordinates": [
          -135.58196444520712,
          12.710272523827367
        ]
      }
    },
    {
      "type": "Feature",
      "properties": {
        "norad_id": 66608,
        "name": "STARLINK-36036",
        "group": "last-30-days",
        "lat": 15.228285985828512,
        "lon": -132.61328828957903,
        "alt_km": 400.5185139750729,
        "timestamp": "2025-12-09T16:56:35.359809+00:00",
        "meta_object_name": "STARLINK-36036",
        "meta_object_id": "2025-270W",
        "meta_epoch": "2025-12-09T12:00:02.000160",
        "meta_mean_motion": 15.55891452,
        "meta_eccentricity": 0.0001618,
        "meta_inclination": 42.9998,
        "meta_ra_of_asc_node": 211.6145,
        "meta_arg_of_pericenter": 250.4945,
        "meta_mean_anomaly": 57.6608,
        "meta_ephemeris_type": 0,
        "meta_classification_type": "U",
        "meta_norad_cat_id": 66608,
        "meta_element_set_no": 999,
        "meta_rev_at_epoch": 372,
        "meta_bstar": -0.031976,
        "meta_mean_motion_dot": -0.0203246,
        "meta_mean_motion_ddot": 0,
        "tle_line1": "1 66608U 25270W   25343.50002315 -.02032460  00000+0 -31976-1 0  9990",
        "tle_line2": "2 66608  42.9998 211.6145 0001618 250.4945  57.6608 15.55891452  3723"
      },
      "geometry": {
        "type": "Point",
        "coordinates": [
          -132.61328828957903,
          15.228285985828512
        ]
      }
    },
    {
      "type": "Feature",
      "properties": {
        "norad_id": 66609,
        "name": "STARLINK-36034",
        "group": "last-30-days",
        "lat": 16.475664552538916,
        "lon": -131.0986243633128,
        "alt_km": 400.32159711845,
        "timestamp": "2025-12-09T16:56:35.359821+00:00",
        "meta_object_name": "STARLINK-36034",
        "meta_object_id": "2025-270X",
        "meta_epoch": "2025-12-09T12:00:02.000160",
        "meta_mean_motion": 15.55889986,
        "meta_eccentricity": 0.0001702,
        "meta_inclination": 42.9993,
        "meta_ra_of_asc_node": 211.6099,
        "meta_arg_of_pericenter": 254.977,
        "meta_mean_anomaly": 55.0985,
        "meta_ephemeris_type": 0,
        "meta_classification_type": "U",
        "meta_norad_cat_id": 66609,
        "meta_element_set_no": 999,
        "meta_rev_at_epoch": 372,
        "meta_bstar": -0.032022,
        "meta_mean_motion_dot": -0.02035004,
        "meta_mean_motion_ddot": 0,
        "tle_line1": "1 66609U 25270X   25343.50002315 -.02035004  00000+0 -32022-1 0  9991",
        "tle_line2": "2 66609  42.9993 211.6099 0001702 254.9770  55.0985 15.55889986  3725"
      },
      "geometry": {
        "type": "Point",
        "coordinates": [
          -131.0986243633128,
          16.475664552538916
        ]
      }
    },
    {
      "type": "Feature",
      "properties": {
        "norad_id": 66610,
        "name": "STARLINK-35680",
        "group": "last-30-days",
        "lat": 17.7105540796221,
        "lon": -129.56696805950315,
        "alt_km": 400.10014817157116,
        "timestamp": "2025-12-09T16:56:35.359831+00:00",
        "meta_object_name": "STARLINK-35680",
        "meta_object_id": "2025-270Y",
        "meta_epoch": "2025-12-09T12:00:02.000160",
        "meta_mean_motion": 15.55895368,
        "meta_eccentricity": 0.0001775,
        "meta_inclination": 42.9995,
        "meta_ra_of_asc_node": 211.6049,
        "meta_arg_of_pericenter": 259.3804,
        "meta_mean_anomaly": 52.6083,
        "meta_ephemeris_type": 0,
        "meta_classification_type": "U",
        "meta_norad_cat_id": 66610,
        "meta_element_set_no": 999,
        "meta_rev_at_epoch": 398,
        "meta_bstar": -0.032109,
        "meta_mean_motion_dot": -0.02040389,
        "meta_mean_motion_ddot": 0,
        "tle_line1": "1 66610U 25270Y   25343.50002315 -.02040389  00000+0 -32109-1 0  9991",
        "tle_line2": "2 66610  42.9995 211.6049 0001775 259.3804  52.6083 15.55895368  3982"
      },
      "geometry": {
        "type": "Point",
        "coordinates": [
          -129.56696805950315,
          17.7105540796221
        ]
      }
    }
  ]
}